STARLINK-1506           
1 45747U 20038T   26068.66028804  .00025380  00000+0  97997-3 0  9997
2 45747  53.0733 202.5028 0002514 227.7836 132.2949 15.26134655316688
STARLINK-30998          
1 58513U 23191F   26068.45569161  .00008137  00000+0  31234-3 0  9991
2 58513  43.0003 104.9154 0001083 269.4650  90.6078 15.26777394125461
